{
  "Biological Science": [
    {
      "file": "",
      "zip": "",
      "type": "",
      "name": "Biological Science",
      "descript": "Biological Science Book",
      "image": ""
    }
  ],
  "Chemistry": [
    {
      "file": "",
      "zip": "",
      "type": "",
      "name": "Chemistry One",
      "descript": "Chemistry One Book",
      "image": ""
    }
  ],
  "Physics": [
    {
      "file": "books/CreateBook/juypterBooks/testBook/index.html",
      "zip": "books/zippedJuypterBooks/testBook.zip",
      "type": "book",
      "name": "Test Jupyter Book",
      "descript": "Juypter Book for testing",
      "image": "Img/one.svg"
    },
    {
      "file": "books/CreateBook/juypterNotebooks/testOne.ipynb",
      "zip": "",
      "type": "notebook",
      "name": "Test Notebook",
      "descript": "Notebook for testing",
      "image": "Img/two.svg"
    },
    {
      "file": "books/CreateBook/juypterNotebooks/testTwo.ipynb",
      "zip": "books/zippedJuypterBooks/testBook.zip",
      "type": "notebook",
      "name": "Test Notebook2",
      "descript": "Notebook2 for testing",
      "image": "Img/three.svg"
    },
    {
      "file": "",
      "zip": "notebook",
      "type": "",
      "name": "Test Card 1",
      "descript": "Test Card",
      "image": ""
    },
    {
      "file": "",
      "zip": "",
      "type": "notebook",
      "name": "Test Card 2",
      "descript": "Test Card",
      "image": ""
    },
    {
      "file": "",
      "zip": "notebook",
      "type": "",
      "name": "Test Card 3",
      "descript": "Test Card",
      "image": ""
    },
    {
      "file": "",
      "zip": "notebook",
      "type": "",
      "name": "Test Card 4",
      "descript": "Test Card",
      "image": ""
    },
    {
      "file": "",
      "zip": "notebook",
      "type": "",
      "name": "Test Card 5",
      "descript": "Test Card",
      "image": ""
    },
    {
      "file": "",
      "zip": "notebook",
      "type": "",
      "name": "Test Card 6",
      "descript": "Test Card",
      "image": ""
    },
    {
      "file": "",
      "zip": "notebook",
      "type": "",
      "name": "Test Card 7",
      "descript": "Test Card",
      "image": ""
    },
    {
      "file": "",
      "zip": "notebook",
      "type": "",
      "name": "Test Card 8",
      "descript": "Test Card",
      "image": ""
    },
    {
      "file": "",
      "zip": "notebook",
      "type": "",
      "name": "Test Card 9",
      "descript": "Test Card",
      "image": ""
    },
    {
      "file": "",
      "zip": "notebook",
      "type": "",
      "name": "Test Card 10",
      "descript": "Test Card",
      "image": ""
    },
    {
      "file": "",
      "zip": "notebook",
      "type": "",
      "name": "Test Card 11",
      "descript": "Test Card",
      "image": ""
    },
    {
      "file": "",
      "zip": "notebook",
      "type": "",
      "name": "Test Card 12",
      "descript": "Test Card",
      "image": ""
    },
    {
      "file": "",
      "zip": "notebook",
      "type": "",
      "name": "Test Card 13",
      "descript": "Test Card",
      "image": ""
    },
    {
      "file": "",
      "zip": "notebook",
      "type": "",
      "name": "Test Card 14",
      "descript": "Test Card",
      "image": ""
    },
    {
      "file": "",
      "zip": "notebook",
      "type": "",
      "name": "Test Card 15",
      "descript": "Test Card",
      "image": ""
    },
    {
      "file": "",
      "zip": "notebook",
      "type": "",
      "name": "Test Card 16",
      "descript": "Test Card",
      "image": ""
    },
    {
      "file": "",
      "zip": "notebook",
      "type": "",
      "name": "Test Card 17",
      "descript": "Test Card",
      "image": ""
    },
    {
      "file": "",
      "zip": "notebook",
      "type": "",
      "name": "Test Card 18",
      "descript": "Test Card",
      "image": ""
    },
    {
      "file": "",
      "zip": "notebook",
      "type": "",
      "name": "Test Card 19",
      "descript": "Test Card",
      "image": ""
    },
    {
      "file": "",
      "zip": "notebook",
      "type": "",
      "name": "Test Card 20",
      "descript": "Test Card",
      "image": ""
    },
    {
      "file": "",
      "zip": "notebook",
      "type": "",
      "name": "Test Card 21",
      "descript": "Test Card",
      "image": ""
    },
    {
      "file": "",
      "zip": "notebook",
      "type": "",
      "name": "Test Card 22",
      "descript": "Test Card",
      "image": ""
    },
    {
      "file": "",
      "zip": "notebook",
      "type": "",
      "name": "Test Card 23",
      "descript": "Test Card",
      "image": ""
    },
    {
      "file": "",
      "zip": "notebook",
      "type": "",
      "name": "Test Card 24",
      "descript": "Test Card",
      "image": ""
    },
    {
      "file": "",
      "zip": "notebook",
      "type": "",
      "name": "Test Card 25",
      "descript": "Test Card",
      "image": ""
    },
    {
      "file": "",
      "zip": "notebook",
      "type": "",
      "name": "Test Card 26",
      "descript": "Test Card",
      "image": ""
    },
    {
      "file": "",
      "zip": "notebook",
      "type": "",
      "name": "Test Card 27",
      "descript": "Test Card",
      "image": ""
    }
  ],
  "Mathematics": [
    {
      "file": "books/CreateBook/juypterBooks/testBook/index.html",
      "zip": "books/zippedJuypterBooks/testBook.zip",
      "type": "book",
      "name": "Test Jupyter Book",
      "descript": "Juypter Book for testing",
      "image": "Img/testDeer.jpg"
    }
  ],
  "Computer Science": [
    {
      "file": "books/CreateBook/juypterNotebooks/testOne.ipynb",
      "zip": "",
      "type": "notebook",
      "name": "Test Notebook",
      "descript": "Notebook for testing",
      "image": "Img/testHorse.jpg"
    }
  ],
  "E&E Engineering": [
    {
      "file": "books/CreateBook/juypterBooks/testBook/index.html",
      "zip": "books/zippedJuypterBooks/testBook.zip",
      "type": "book",
      "name": "Test Jupyter Book",
      "descript": "Juypter Book for testing",
      "image": "Img/one.svg"
    },
    {
      "file": "books/CreateBook/juypterNotebooks/testOne.ipynb",
      "zip": "",
      "type": "notebook",
      "name": "Test Notebook",
      "descript": "Notebook for testing",
      "image": "Img/two.svg"
    },
    {
      "file": "books/CreateBook/juypterNotebooks/testTwo.ipynb",
      "zip": "books/zippedJuypterBooks/testBook.zip",
      "type": "notebook",
      "name": "Test Notebook2",
      "descript": "Notebook2 for testing",
      "image": "Img/three.svg"
    }
  ],
  "GESP": [
    
  ]
}